[{"OBJECT_NAME":"STARLINK-2187","OBJECT_ID":"2021-041K","EPOCH":"2026-03-09T10:50:24.076320","MEAN_MOTION":15.30210871,"ECCENTRICITY":0.00013182,"INCLINATION":53.1596,"RA_OF_ASC_NODE":127.8041,"ARG_OF_PERICENTER":87.0026,"MEAN_ANOMALY":273.1126,"EPHEMERIS_TYPE":0,"CLASSIFICATION_TYPE":"U","NORAD_CAT_ID":48562,"ELEMENT_SET_NO":999,"REV_AT_EPOCH":26524,"BSTAR":0.00013571257,"MEAN_MOTION_DOT":3.664e-5,"MEAN_MOTION_DDOT":0},{"OBJECT_NAME":"SPACEMOBILE-005 DEB","OBJECT_ID":"2024-163K","EPOCH":"2026-03-09T07:33:15.902496","MEAN_MOTION":15.31481997,"ECCENTRICITY":0.00072885,"INCLINATION":52.9762,"RA_OF_ASC_NODE":31.7924,"ARG_OF_PERICENTER":175.8731,"MEAN_ANOMALY":184.2329,"EPHEMERIS_TYPE":0,"CLASSIFICATION_TYPE":"U","NORAD_CAT_ID":62373,"ELEMENT_SET_NO":999,"REV_AT_EPOCH":8280,"BSTAR":0.00063853778,"MEAN_MOTION_DOT":0.00019381,"MEAN_MOTION_DDOT":0}]
